{
  "type": "FeatureCollection",
  "features": [
    {
      "type": "Feature",
      "properties": { "country": "IN", "name": "India", "capital": "New Delhi", "farmers_million": 146, "arable_land_mha": 156.4, "primary_crops": ["Rice", "Wheat", "Cotton", "Sugarcane"] },
      "geometry": { "type": "Point", "coordinates": [78.9629, 20.5937] }
    },
    {
      "type": "Feature",
      "properties": { "country": "BR", "name": "Brazil", "capital": "Brasília", "farmers_million": 15.1, "arable_land_mha": 63.9, "primary_crops": ["Soybean", "Coffee", "Sugarcane", "Corn"] },
      "geometry": { "type": "Point", "coordinates": [-47.8825, -15.7942] }
    },
    {
      "type": "Feature",
      "properties": { "country": "RU", "name": "Russia", "capital": "Moscow", "farmers_million": 4.2, "arable_land_mha": 123.4, "primary_crops": ["Wheat", "Barley", "Sunflower", "Potato"] },
      "geometry": { "type": "Point", "coordinates": [37.6173, 55.7558] }
    },
    {
      "type": "Feature",
      "properties": { "country": "CN", "name": "China", "capital": "Beijing", "farmers_million": 300, "arable_land_mha": 119.5, "primary_crops": ["Rice", "Wheat", "Corn", "Soybean"] },
      "geometry": { "type": "Point", "coordinates": [116.4074, 39.9042] }
    },
    {
      "type": "Feature",
      "properties": { "country": "ZA", "name": "South Africa", "capital": "Pretoria", "farmers_million": 2.5, "arable_land_mha": 12.5, "primary_crops": ["Maize", "Sugarcane", "Wheat", "Sunflower"] },
      "geometry": { "type": "Point", "coordinates": [28.2293, -25.7479] }
    }
  ]
}
