{
  "type": "FeatureCollection",
  "features": [
    {
      "type": "Feature",
      "geometry": {
        "type": "Point",
        "coordinates": [75.3412, 31.1471]
      },
      "properties": {
        "code": "PB",
        "name": "Punjab",
        "capital": "Chandigarh",
        "farmers_millions": 2.85,
        "arable_land_mha": 4.2,
        "primary_crops": ["Wheat", "Rice", "Cotton", "Sugarcane"]
      }
    },
    {
      "type": "Feature",
      "geometry": {
        "type": "Point",
        "coordinates": [75.7139, 19.7515]
      },
      "properties": {
        "code": "MH",
        "name": "Maharashtra",
        "capital": "Mumbai",
        "farmers_millions": 4.12,
        "arable_land_mha": 17.5,
        "primary_crops": ["Cotton", "Sugarcane", "Soybean", "Rice", "Onion"]
      }
    },
    {
      "type": "Feature",
      "geometry": {
        "type": "Point",
        "coordinates": [75.7139, 15.3173]
      },
      "properties": {
        "code": "KA",
        "name": "Karnataka",
        "capital": "Bengaluru",
        "farmers_millions": 3.54,
        "arable_land_mha": 10.2,
        "primary_crops": ["Rice", "Sugarcane", "Cotton", "Ragi", "Maize"]
      }
    },
    {
      "type": "Feature",
      "geometry": {
        "type": "Point",
        "coordinates": [78.6569, 11.1271]
      },
      "properties": {
        "code": "TN",
        "name": "Tamil Nadu",
        "capital": "Chennai",
        "farmers_millions": 2.98,
        "arable_land_mha": 5.6,
        "primary_crops": ["Rice", "Sugarcane", "Banana", "Cotton", "Groundnut"]
      }
    },
    {
      "type": "Feature",
      "geometry": {
        "type": "Point",
        "coordinates": [80.9462, 26.8467]
      },
      "properties": {
        "code": "UP",
        "name": "Uttar Pradesh",
        "capital": "Lucknow",
        "farmers_millions": 5.67,
        "arable_land_mha": 16.6,
        "primary_crops": ["Wheat", "Rice", "Sugarcane", "Potato", "Mustard"]
      }
    },
    {
      "type": "Feature",
      "geometry": {
        "type": "Point",
        "coordinates": [78.6569, 22.9734]
      },
      "properties": {
        "code": "MP",
        "name": "Madhya Pradesh",
        "capital": "Bhopal",
        "farmers_millions": 3.89,
        "arable_land_mha": 14.9,
        "primary_crops": ["Soybean", "Wheat", "Rice", "Cotton", "Maize"]
      }
    },
    {
      "type": "Feature",
      "geometry": {
        "type": "Point",
        "coordinates": [71.1924, 22.2587]
      },
      "properties": {
        "code": "GJ",
        "name": "Gujarat",
        "capital": "Gandhinagar",
        "farmers_millions": 2.45,
        "arable_land_mha": 9.8,
        "primary_crops": ["Cotton", "Groundnut", "Wheat", "Rice", "Cumin"]
      }
    },
    {
      "type": "Feature",
      "geometry": {
        "type": "Point",
        "coordinates": [87.8550, 22.9868]
      },
      "properties": {
        "code": "WB",
        "name": "West Bengal",
        "capital": "Kolkata",
        "farmers_millions": 3.21,
        "arable_land_mha": 5.2,
        "primary_crops": ["Rice", "Jute", "Potato", "Tea", "Wheat"]
      }
    }
  ]
}
